     2.11           N: GPS NAV DATA                         RINEX VERSION / TYPE
teqc  2019Feb25                         20221121 12:25:45UTCPGM / RUN BY / DATE
OSX ker:10.11.6|Core i5|gcc 4.3 -m64|OSX ker:10.10+|=+      COMMENT
    4.6566D-09  1.4901D-08 -5.9605D-08 -5.9605D-08          ION ALPHA
    7.9872D+04  6.5536D+04 -6.5536D+04 -3.9322D+05          ION BETA
    1.862645149231D-09 4.440892098501D-15   589824     1542 DELTA-UTC: A0,A1,T,W
                                                            END OF HEADER
25 09  7 31  5 59 44.0 5.324063822627D-04 1.659827830736D-11 0.000000000000D+00
    1.000000000000D+00-7.087500000000D+01 4.019095982909D-09 2.177888352717D+00
   -3.680586814880D-06 1.125902764034D-02 4.678964614868D-06 5.153648914337D+03
    4.535840000000D+05 1.471489667892D-07 1.522031823695D+00 9.499490261078D-08
    9.701897400226D-01 2.924062500000D+02-1.210580442815D+00-7.751751462992D-09
   -1.353627812603D-10 1.000000000000D+00 1.542000000000D+03 0.000000000000D+00
    2.000000000000D+00 0.000000000000D+00-7.450580596924D-09 1.000000000000D+00
    4.500780000000D+05 4.000000000000D+00
24 09  7 31  5 59 44.0 2.086069434881D-04 2.955857780762D-12 0.000000000000D+00
    2.000000000000D+00 3.031250000000D+01 4.883774857397D-09 1.668652384424D+00
    1.544132828712D-06 6.605389877222D-03 8.266419172287D-06 5.153671037674D+03
    4.535840000000D+05 1.080334186554D-07-1.475185934730D+00-1.303851604462D-08
    9.499721946121D-01 2.146875000000D+02-6.463826437459D-01-7.974617889130D-09
   -3.878732993369D-10 1.000000000000D+00 1.542000000000D+03 0.000000000000D+00
    2.000000000000D+00 0.000000000000D+00-1.396983861923D-09 2.000000000000D+00
    4.511280000000D+05 4.000000000000D+00
16 09  7 31  6  0  0.0 2.763606607914D-05-3.637978807092D-12 0.000000000000D+00
    8.100000000000D+01-5.278125000000D+01 4.064812172886D-09 1.559433751372D+00
   -2.643093466759D-06 5.324264522642D-03 8.473172783852D-06 5.153592220306D+03
    4.536000000000D+05 2.980232238770D-08 2.686168131422D+00 8.754432201386D-08
    9.692977710743D-01 2.202500000000D+02-3.036152587256D-01-7.657461821164D-09
    3.110843864848D-10 1.000000000000D+00 1.542000000000D+03 0.000000000000D+00
    2.000000000000D+00 0.000000000000D+00-9.778887033463D-09 8.100000000000D+01
    4.522380000000D+05 4.000000000000D+00
 7 09  7 31  5 59 44.0 1.426460221410D-05-6.821210263297D-13 0.000000000000D+00
    1.200000000000D+01-7.068750000000D+01 4.128029091838D-09-2.292616611747D+00
   -3.680586814880D-06 2.923392225057D-03 5.455687642097D-06 5.153662351608D+03
    4.535840000000D+05-1.676380634308D-08 1.616450657281D+00 1.862645149231D-08
    9.679950235067D-01 2.790000000000D+02 2.892606897465D+00-7.949616847736D-09
   -2.214377952016D-11 1.000000000000D+00 1.542000000000D+03 0.000000000000D+00
    2.000000000000D+00 0.000000000000D+00-1.071020960808D-08 1.200000000000D+01
    4.524180000000D+05 4.000000000000D+00
29 09  7 31  8  0  0.0 4.438776522875D-05 3.410605131648D-12 0.000000000000D+00
    1.010000000000D+02-2.156250000000D+00 4.617692345421D-09-2.212940438972D+00
    1.117587089539D-08 3.280702396296D-03 6.835907697678D-06 5.153632894516D+03
    4.608000000000D+05 3.539025783539D-08-2.546780882823D+00 6.705522537231D-08
    9.601699844196D-01 2.433750000000D+02-1.291514242375D+00-7.911043812443D-09
    2.421529437849D-10 1.000000000000D+00 1.542000000000D+03 0.000000000000D+00
    2.000000000000D+00 0.000000000000D+00-8.847564458847D-09 1.010000000000D+02
    4.536180000000D+05 4.000000000000D+00
25 09  7 31  7 59 44.0 5.325260572135D-04 1.659827830736D-11 0.000000000000D+00
    7.200000000000D+01-7.796875000000D+01 4.087670267874D-09-3.055032845603D+00
   -3.971159458160D-06 1.125977211632D-02 4.546716809273D-06 5.153647050858D+03
    4.607840000000D+05 8.009374141693D-08 1.521976510762D+00 2.793967723846D-08
    9.701884745985D-01 2.989062500000D+02-1.210650962781D+00-7.730679156674D-09
   -2.067943280995D-10 1.000000000000D+00 1.542000000000D+03 0.000000000000D+00
    2.000000000000D+00 0.000000000000D+00-7.450580596924D-09 7.200000000000D+01
    4.536180000000D+05 4.000000000000D+00
 2 09  7 31  8  0  0.0 1.626624725759D-04 2.046363078989D-12 0.000000000000D+00
    5.300000000000D+01 1.475000000000D+01 5.207716922313D-09 4.291304510058D-01
    8.195638656616D-07 9.055417729542D-03 7.683411240578D-06 5.153685819626D+03
    4.608000000000D+05 1.359730958939D-07-1.539517834800D+00-4.284083843231D-08
    9.406083924579D-01 2.217812500000D+02 2.873520503720D+00-8.276059016792D-09
   -1.835790753768D-10 1.000000000000D+00 1.542000000000D+03 0.000000000000D+00
    2.000000000000D+00 0.000000000000D+00-1.722946763039D-08 5.300000000000D+01
    4.536180000000D+05 4.000000000000D+00
13 09  7 31  8  0  0.0 3.023683093488D-04 6.821210263297D-13 0.000000000000D+00
    2.800000000000D+01 3.012500000000D+01 3.870161207749D-09 1.029751555777D+00
    1.315027475357D-06 4.119703662582D-03 3.289431333542D-06 5.153672517776D+03
    4.608000000000D+05-5.029141902924D-08 6.279020399889D-01-2.793967723846D-08
    9.947983174344D-01 3.347500000000D+02 1.635904890074D+00-7.910686654709D-09
   -1.071473202588D-10 1.000000000000D+00 1.542000000000D+03 0.000000000000D+00
    2.000000000000D+00 0.000000000000D+00-1.117587089539D-08 2.800000000000D+01
    4.536180000000D+05 4.000000000000D+00
 4 09  7 31  8  0  0.0-1.985747367144D-04-1.671196514508D-11 0.000000000000D+00
    6.400000000000D+01 1.428125000000D+01 5.108427072207D-09-2.984891039527D+00
    6.835907697678D-07 8.640562766232D-03 8.368864655495D-06 5.153776721954D+03
    4.608000000000D+05-9.872019290924D-08-1.521216198589D+00-1.080334186554D-07
    9.398082698953D-01 2.104687500000D+02 4.962005767686D-01-8.016048186297D-09
   -2.039370662260D-10 1.000000000000D+00 1.542000000000D+03 0.000000000000D+00
    2.000000000000D+00 0.000000000000D+00-6.053596735001D-09 6.400000000000D+01
    4.536180000000D+05 4.000000000000D+00
23 09  7 31  8  0  0.0 3.898078575730D-04-2.273736754432D-13 0.000000000000D+00
    1.450000000000D+02 3.171875000000D+01 4.459114311438D-09 3.392701520779D-01
    1.341104507446D-06 6.380691658705D-03 2.587214112282D-06 5.153587244034D+03
    4.608000000000D+05 4.470348358154D-08 5.743637791854D-01 2.793967723846D-08
    9.702459365577D-01 3.314687500000D+02 2.926743011211D+00-8.272844597184D-09
   -1.485776174256D-10 1.000000000000D+00 1.542000000000D+03 0.000000000000D+00
    2.000000000000D+00 0.000000000000D+00-2.002343535423D-08 1.450000000000D+02
    4.536180000000D+05 4.000000000000D+00
10 09  7 31  8  0  0.0-2.024788409472D-05-6.821210263297D-13 0.000000000000D+00
    5.800000000000D+01 7.746875000000D+01 4.669480216880D-09 1.428793004701D+00
    4.261732101440D-06 8.566851960495D-03 7.612630724907D-06 5.153648994446D+03
    4.608000000000D+05-9.499490261078D-08-4.546462775452D-01 1.974403858185D-07
    9.575205373738D-01 2.328750000000D+02 6.248090259410D-01-8.151410967557D-09
   -1.560779298437D-10 1.000000000000D+00 1.542000000000D+03 0.000000000000D+00
    2.800000000000D+00 0.000000000000D+00-2.793967723846D-09 5.800000000000D+01
    4.536180000000D+05 4.000000000000D+00
24 09  7 31  8  0  0.0 2.086288295686D-04 2.955857780762D-12 0.000000000000D+00
    1.600000000000D+01 2.825000000000D+01 4.850559188117D-09 2.721222883113D+00
    1.451000571251D-06 6.605475558899D-03 8.016824722290D-06 5.153670431137D+03
    4.608000000000D+05 4.656612873077D-08-1.475244278829D+00 1.881271600723D-07
    9.499698934420D-01 2.170000000000D+02-6.464334962413D-01-7.958188633357D-09
   -2.292952653539D-10 1.000000000000D+00 1.542000000000D+03 0.000000000000D+00
    2.000000000000D+00 0.000000000000D+00-1.396983861923D-09 1.600000000000D+01
    4.536180000000D+05 4.000000000000D+00
 7 09  7 31  8  0  0.0 1.425994560122D-05-6.821210263297D-13 0.000000000000D+00
    2.900000000000D+01-8.090625000000D+01 4.174459597284D-09-1.240744358006D+00
   -4.194676876068D-06 2.923714695498D-03 5.045905709267D-06 5.153658733368D+03
    4.608000000000D+05-1.192092895508D-07 1.616393903374D+00-6.519258022308D-08
    9.679947133681D-01 2.882500000000D+02 2.893254308935D+00-7.913186758848D-09
   -1.171477368163D-10 1.000000000000D+00 1.542000000000D+03 0.000000000000D+00
    2.000000000000D+00 0.000000000000D+00-1.071020960808D-08 2.900000000000D+01
    4.536180000000D+05 4.000000000000D+00
16 09  7 31  8  0  0.0 2.760998904705D-05-3.637978807092D-12 0.000000000000D+00
    8.800000000000D+01-5.612500000000D+01 4.038382500555D-09 2.609436605006D+00
   -2.851709723473D-06 5.323643679731D-03 9.002164006233D-06 5.153594741821D+03
    4.608000000000D+05 0.000000000000D+00 2.686113046704D+00 6.146728992462D-08
    9.692999464334D-01 2.112187500000D+02-3.033916107355D-01-7.647461404607D-09
    3.042983895351D-10 1.000000000000D+00 1.542000000000D+03 0.000000000000D+00
    2.000000000000D+00 0.000000000000D+00-9.778887033463D-09 8.800000000000D+01
    4.536180000000D+05 4.000000000000D+00
 8 09  7 31  8  0  0.0-2.144216559827D-04-1.705302565824D-12 0.000000000000D+00
    5.500000000000D+01-8.084375000000D+01 3.699439810803D-09-1.954636174100D+00
   -4.274770617485D-06 1.078872696962D-02 5.925074219704D-06 5.153636054993D+03
    4.608000000000D+05-1.061707735062D-07 1.678111605410D+00-1.136213541031D-07
    9.892127235834D-01 2.807187500000D+02 3.002690015623D+00-7.711749796762D-09
   -1.535778257043D-11 1.000000000000D+00 1.542000000000D+03 0.000000000000D+00
    2.000000000000D+00 0.000000000000D+00-3.725290298462D-09 5.500000000000D+01
    4.558080000000D+05 4.000000000000D+00
